COSMOS 2251 DEB         
1 35060U 93036AHP 17344.99057157  .00000156  00000-0  61835-4 0  9996
2 35060  74.0388 227.4355 0020218 309.4759  50.4605 14.36619115452833
